IRIDIUM 116             
1 43072U 17083C   25283.65299976  .00000247  00000+0  81308-4 0  9994
2 43072  86.3938  66.3031 0001770  86.3940 273.7458 14.34217274408406
IRIDIUM 130             
1 43073U 17083D   25283.83059031 -.00000339  00000+0 -12809-3 0  9994
2 43073  86.3945  66.4806 0001990  80.7717 279.3704 14.34216093408370
IRIDIUM 151             
1 43074U 17083E   25283.66568017  .00000365  00000+0  12315-3 0  9994
2 43074  86.3939  66.3500 0001875  87.4602 272.6808 14.34218728408371
IRIDIUM 134             
1 43075U 17083F   25283.84327793  .00000120  00000+0  35848-4 0  9995
2 43075  86.3940  66.2804 0002111  83.7941 276.3495 14.34217761408367
IRIDIUM 137             
1 43076U 17083G   25283.85596121  .00000147  00000+0  45370-4 0  9990
2 43076  86.3939  66.3626 0001504  90.4903 269.6465 14.34218089408431
IRIDIUM 141             
1 43077U 17083H   25283.64031219  .00000106  00000+0  30640-4 0  9999
2 43077  86.3939  66.2981 0002265  95.1209 265.0245 14.34217844408402
IRIDIUM 153             
1 43078U 17083J   25283.59249258  .00000235  00000+0  76804-4 0  9993
2 43078  86.4000  34.7927 0002505  98.4947 261.6533 14.34219518409509
IRIDIUM 131             
1 43079U 17083K   25283.69739694  .00000152  00000+0  47125-4 0  9995
2 43079  86.3943  66.4434 0002034  95.2923 264.8505 14.34217464408349
